CCSDS_OMM_VERS = 2.0
CREATION_DATE  = 
ORIGINATOR     = 

OBJECT_NAME    = UNKNOWN
OBJECT_ID      = 
CENTER_NAME    = EARTH
REF_FRAME      = TEME
TIME_SYSTEM    = UTC
MEAN_ELEMENT_THEORY = SGP/SGP4

EPOCH          = 2025-10-31T22:04:47.985312
MEAN_MOTION    = 12.25904975
ECCENTRICITY   = .0387251
INCLINATION    = 101.0869
RA_OF_ASC_NODE = 10.9531
ARG_OF_PERICENTER = 163.4424
MEAN_ANOMALY   = 197.9698

EPHEMERIS_TYPE = 0
CLASSIFICATION_TYPE = U
NORAD_CAT_ID   = 81693
ELEMENT_SET_NO = 999
REV_AT_EPOCH   = 96264
BSTAR          = .33853E-2
MEAN_MOTION_DOT = .445E-5
MEAN_MOTION_DDOT = 0

CCSDS_OMM_VERS = 2.0
CREATION_DATE  = 
ORIGINATOR     = 

OBJECT_NAME    = UNKNOWN
OBJECT_ID      = 
CENTER_NAME    = EARTH
REF_FRAME      = TEME
TIME_SYSTEM    = UTC
MEAN_ELEMENT_THEORY = SGP/SGP4

EPOCH          = 2025-10-25T18:56:57.310944
MEAN_MOTION    = 14.39947114
ECCENTRICITY   = .0006984
INCLINATION    = 70.9989
RA_OF_ASC_NODE = 132.4446
ARG_OF_PERICENTER = 284.1274
MEAN_ANOMALY   = 75.9085

EPHEMERIS_TYPE = 0
CLASSIFICATION_TYPE = U
NORAD_CAT_ID   = 81745
ELEMENT_SET_NO = 999
REV_AT_EPOCH   = 62284
BSTAR          = .96058E-3
MEAN_MOTION_DOT = .2975E-4
MEAN_MOTION_DDOT = 0

CCSDS_OMM_VERS = 2.0
CREATION_DATE  = 
ORIGINATOR     = 

OBJECT_NAME    = UNKNOWN
OBJECT_ID      = 
CENTER_NAME    = EARTH
REF_FRAME      = TEME
TIME_SYSTEM    = UTC
MEAN_ELEMENT_THEORY = SGP/SGP4

EPOCH          = 2025-10-25T07:56:07.130976
MEAN_MOTION    = 12.77587173
ECCENTRICITY   = .036927
INCLINATION    = 99.6930
RA_OF_ASC_NODE = 335.1454
ARG_OF_PERICENTER = 316.3517
MEAN_ANOMALY   = 99.7559

EPHEMERIS_TYPE = 0
CLASSIFICATION_TYPE = U
NORAD_CAT_ID   = 81749
ELEMENT_SET_NO = 999
REV_AT_EPOCH   = 55582
BSTAR          = .86178E-3
MEAN_MOTION_DOT = .214E-5
MEAN_MOTION_DDOT = 0

CCSDS_OMM_VERS = 2.0
CREATION_DATE  = 
ORIGINATOR     = 

OBJECT_NAME    = UNKNOWN
OBJECT_ID      = 
CENTER_NAME    = EARTH
REF_FRAME      = TEME
TIME_SYSTEM    = UTC
MEAN_ELEMENT_THEORY = SGP/SGP4

EPOCH          = 2025-10-28T20:35:21.757344
MEAN_MOTION    = 14.39912612
ECCENTRICITY   = .0021386
INCLINATION    = 82.9181
RA_OF_ASC_NODE = 261.4565
ARG_OF_PERICENTER = 32.6845
MEAN_ANOMALY   = 327.5665

EPHEMERIS_TYPE = 0
CLASSIFICATION_TYPE = U
NORAD_CAT_ID   = 81775
ELEMENT_SET_NO = 999
REV_AT_EPOCH   = 61881
BSTAR          = .36111E-2
MEAN_MOTION_DOT = .11408E-3
MEAN_MOTION_DDOT = 0

CCSDS_OMM_VERS = 2.0
CREATION_DATE  = 
ORIGINATOR     = 

OBJECT_NAME    = UNKNOWN
OBJECT_ID      = 
CENTER_NAME    = EARTH
REF_FRAME      = TEME
TIME_SYSTEM    = UTC
MEAN_ELEMENT_THEORY = SGP/SGP4

EPOCH          = 2025-11-01T09:06:35.801856
MEAN_MOTION    = 13.10706476
ECCENTRICITY   = .0897036
INCLINATION    = 65.8254
RA_OF_ASC_NODE = 188.8040
ARG_OF_PERICENTER = 300.6256
MEAN_ANOMALY   = 50.9274

EPHEMERIS_TYPE = 0
CLASSIFICATION_TYPE = U
NORAD_CAT_ID   = 81792
ELEMENT_SET_NO = 999
REV_AT_EPOCH   = 7461
BSTAR          = .72564E-3
MEAN_MOTION_DOT = .2004E-4
MEAN_MOTION_DDOT = 0

CCSDS_OMM_VERS = 2.0
CREATION_DATE  = 
ORIGINATOR     = 

OBJECT_NAME    = UNKNOWN
OBJECT_ID      = 
CENTER_NAME    = EARTH
REF_FRAME      = TEME
TIME_SYSTEM    = UTC
MEAN_ELEMENT_THEORY = SGP/SGP4

EPOCH          = 2025-11-01T16:16:59.647296
MEAN_MOTION    = 12.37654305
ECCENTRICITY   = .0359999
INCLINATION    = 103.8174
RA_OF_ASC_NODE = 212.0131
ARG_OF_PERICENTER = 313.4716
MEAN_ANOMALY   = 43.6917

EPHEMERIS_TYPE = 0
CLASSIFICATION_TYPE = U
NORAD_CAT_ID   = 81812
ELEMENT_SET_NO = 999
REV_AT_EPOCH   = 53548
BSTAR          = .1282E-1
MEAN_MOTION_DOT = .202E-4
MEAN_MOTION_DDOT = 0

CCSDS_OMM_VERS = 2.0
CREATION_DATE  = 
ORIGINATOR     = 

OBJECT_NAME    = UNKNOWN
OBJECT_ID      = 
CENTER_NAME    = EARTH
REF_FRAME      = TEME
TIME_SYSTEM    = UTC
MEAN_ELEMENT_THEORY = SGP/SGP4

EPOCH          = 2025-11-01T23:55:15.720672
MEAN_MOTION    = 13.89256088
ECCENTRICITY   = .0182422
INCLINATION    = 66.2395
RA_OF_ASC_NODE = 37.6983
ARG_OF_PERICENTER = 268.1389
MEAN_ANOMALY   = 89.8785

EPHEMERIS_TYPE = 0
CLASSIFICATION_TYPE = U
NORAD_CAT_ID   = 81816
ELEMENT_SET_NO = 999
REV_AT_EPOCH   = 60368
BSTAR          = .19569E-2
MEAN_MOTION_DOT = .2644E-4
MEAN_MOTION_DDOT = 0

CCSDS_OMM_VERS = 2.0
CREATION_DATE  = 
ORIGINATOR     = 

OBJECT_NAME    = UNKNOWN
OBJECT_ID      = 
CENTER_NAME    = EARTH
REF_FRAME      = TEME
TIME_SYSTEM    = UTC
MEAN_ELEMENT_THEORY = SGP/SGP4

EPOCH          = 2025-10-25T05:25:49.791072
MEAN_MOTION    = 12.47533926
ECCENTRICITY   = .0038293
INCLINATION    = 102.1773
RA_OF_ASC_NODE = 34.7198
ARG_OF_PERICENTER = 206.7028
MEAN_ANOMALY   = 153.2068

EPHEMERIS_TYPE = 0
CLASSIFICATION_TYPE = U
NORAD_CAT_ID   = 81819
ELEMENT_SET_NO = 999
REV_AT_EPOCH   = 54196
BSTAR          = .67964E-2
MEAN_MOTION_DOT = .957E-5
MEAN_MOTION_DDOT = 0

CCSDS_OMM_VERS = 2.0
CREATION_DATE  = 
ORIGINATOR     = 

OBJECT_NAME    = UNKNOWN
OBJECT_ID      = 
CENTER_NAME    = EARTH
REF_FRAME      = TEME
TIME_SYSTEM    = UTC
MEAN_ELEMENT_THEORY = SGP/SGP4

EPOCH          = 2025-11-01T18:52:18.530112
MEAN_MOTION    = 14.34727913
ECCENTRICITY   = .0035961
INCLINATION    = 65.8433
RA_OF_ASC_NODE = 89.0585
ARG_OF_PERICENTER = 348.3767
MEAN_ANOMALY   = 11.6492

EPHEMERIS_TYPE = 0
CLASSIFICATION_TYPE = U
NORAD_CAT_ID   = 81824
ELEMENT_SET_NO = 999
REV_AT_EPOCH   = 61871
BSTAR          = .19661E-2
MEAN_MOTION_DOT = .5531E-4
MEAN_MOTION_DDOT = 0

CCSDS_OMM_VERS = 2.0
CREATION_DATE  = 
ORIGINATOR     = 

OBJECT_NAME    = UNKNOWN
OBJECT_ID      = 
CENTER_NAME    = EARTH
REF_FRAME      = TEME
TIME_SYSTEM    = UTC
MEAN_ELEMENT_THEORY = SGP/SGP4

EPOCH          = 2025-11-01T10:21:53.930016
MEAN_MOTION    = 12.93702634
ECCENTRICITY   = .0029594
INCLINATION    = 90.2438
RA_OF_ASC_NODE = 2.0051
ARG_OF_PERICENTER = 131.2193
MEAN_ANOMALY   = 229.1483

EPHEMERIS_TYPE = 0
CLASSIFICATION_TYPE = U
NORAD_CAT_ID   = 81833
ELEMENT_SET_NO = 999
REV_AT_EPOCH   = 44717
BSTAR          = .59395E-3
MEAN_MOTION_DOT = .171E-5
MEAN_MOTION_DDOT = 0

CCSDS_OMM_VERS = 2.0
CREATION_DATE  = 
ORIGINATOR     = 

OBJECT_NAME    = UNKNOWN
OBJECT_ID      = 
CENTER_NAME    = EARTH
REF_FRAME      = TEME
TIME_SYSTEM    = UTC
MEAN_ELEMENT_THEORY = SGP/SGP4

EPOCH          = 2025-11-01T18:25:55.995744
MEAN_MOTION    = 14.32320416
ECCENTRICITY   = .0061687
INCLINATION    = 82.9107
RA_OF_ASC_NODE = 316.0892
ARG_OF_PERICENTER = 278.5059
MEAN_ANOMALY   = 80.9141

EPHEMERIS_TYPE = 0
CLASSIFICATION_TYPE = U
NORAD_CAT_ID   = 81844
ELEMENT_SET_NO = 999
REV_AT_EPOCH   = 61702
BSTAR          = .21568E-2
MEAN_MOTION_DOT = .5963E-4
MEAN_MOTION_DDOT = 0

CCSDS_OMM_VERS = 2.0
CREATION_DATE  = 
ORIGINATOR     = 

OBJECT_NAME    = UNKNOWN
OBJECT_ID      = 
CENTER_NAME    = EARTH
REF_FRAME      = TEME
TIME_SYSTEM    = UTC
MEAN_ELEMENT_THEORY = SGP/SGP4

EPOCH          = 2025-10-29T19:08:47.039424
MEAN_MOTION    = 14.84713299
ECCENTRICITY   = .0089886
INCLINATION    = 97.6773
RA_OF_ASC_NODE = 131.4074
ARG_OF_PERICENTER = 89.5971
MEAN_ANOMALY   = 285.1072

EPHEMERIS_TYPE = 0
CLASSIFICATION_TYPE = U
NORAD_CAT_ID   = 81845
ELEMENT_SET_NO = 999
REV_AT_EPOCH   = 64300
BSTAR          = .42202E-3
MEAN_MOTION_DOT = .3787E-4
MEAN_MOTION_DDOT = 0

