UNKNOWN                 
1 81693U          25304.91999983  .00000445  00000+0  33853-2 0  9994
2 81693 101.0869  10.9531 0387251 163.4424 197.9698 12.25904975962643
UNKNOWN                 
1 81745U          25298.78955221  .00002975  00000+0  96058-3 0  9993
2 81745  70.9989 132.4446 0006984 284.1274  75.9085 14.39947114622847
UNKNOWN                 
1 81749U          25298.33063809  .00000214  00000+0  86178-3 0  9996
2 81749  99.6930 335.1454 0369270 316.3517  99.7559 12.77587173555822
UNKNOWN                 
1 81775U          25301.85789071  .00011408  00000+0  36111-2 0  9991
2 81775  82.9181 261.4565 0021386  32.6845 327.5665 14.39912612618812
UNKNOWN                 
1 81792U          25305.37958104  .00002004  00000+0  72564-3 0  9991
2 81792  65.8254 188.8040 0897036 300.6256  50.9274 13.10706476 74613
UNKNOWN                 
1 81812U          25305.67846814  .00002020  00000+0  12820-1 0  9996
2 81812 103.8174 212.0131 0359999 313.4716  43.6917 12.37654305535486
UNKNOWN                 
1 81816U          25305.99670973  .00002644  00000+0  19569-2 0  9996
2 81816  66.2395  37.6983 0182422 268.1389  89.8785 13.89256088603687
UNKNOWN                 
1 81819U          25298.22627073  .00000957  00000+0  67964-2 0  9996
2 81819 102.1773  34.7198 0038293 206.7028 153.2068 12.47533926541964
UNKNOWN                 
1 81824U          25305.78632558  .00005531  00000+0  19661-2 0  9990
2 81824  65.8433  89.0585 0035961 348.3767  11.6492 14.34727913618718
UNKNOWN                 
1 81833U          25305.43187419  .00000171  00000+0  59395-3 0  9997
2 81833  90.2438   2.0051 0029594 131.2193 229.1483 12.93702634447177
UNKNOWN                 
1 81844U          25305.76800921  .00005963  00000+0  21568-2 0  9999
2 81844  82.9107 316.0892 0061687 278.5059  80.9141 14.32320416617022
UNKNOWN                 
1 81845U          25302.79776666  .00003787  00000+0  42202-3 0  9999
2 81845  97.6773 131.4074 0089886  89.5971 285.1072 14.84713299643001
